{"type": "FeatureCollection", "features": [ {"type": "Feature", "properties": {"norad_id": 41556, "name": "ZIYUAN 3-02 (ZY 3-02)", "group": "resource", "lat": 61.52461532405063, "lon": 59.25391147446509, "alt_km": 501.9636624586983, "timestamp": "2025-12-25T03:55:55.963631+00:00", "meta": {"OBJECT_NAME": "ZIYUAN 3-02 (ZY 3-02)", "OBJECT_ID": "2016-033A", "EPOCH": "2025-12-24T21:20:36.384864", "MEAN_MOTION": 15.21223779, "ECCENTRICITY": 0.0011416, "INCLINATION": 97.4025, "RA_OF_ASC_NODE": 72.8528, "ARG_OF_PERICENTER": 200.869, "MEAN_ANOMALY": 159.2081, "EPHEMERIS_TYPE": 0, "CLASSIFICATION_TYPE": "U", "NORAD_CAT_ID": 41556, "ELEMENT_SET_NO": 999, "REV_AT_EPOCH": 53148, "BSTAR": 0.0003628, "MEAN_MOTION_DOT": 8.044e-05, "MEAN_MOTION_DDOT": 0}, "tle": {"line1": "1 41556U 16033A   25358.88931001  .00008044  00000+0  36280-3 0  9994", "line2": "2 41556  97.4025  72.8528 0011416 200.8690 159.2081 15.21223779531486"}}, "geometry": {"type": "Point", "coordinates": [59.25391147446509, 61.52461532405063]}}, {"type": "Feature", "properties": {"norad_id": 41599, "name": "CARTOSAT-2C", "group": "resource", "lat": -81.20174993128619, "lon": 114.30553436941157, "alt_km": 517.9427749358983, "timestamp": "2025-12-25T03:55:55.963641+00:00", "meta": {"OBJECT_NAME": "CARTOSAT-2C", "OBJECT_ID": "2016-040A", "EPOCH": "2025-12-24T20:24:12.191040", "MEAN_MOTION": 15.192201, "ECCENTRICITY": 0.0010728, "INCLINATION": 97.4743, "RA_OF_ASC_NODE": 55.9746, "ARG_OF_PERICENTER": 24.6619, "MEAN_ANOMALY": 335.5127, "EPHEMERIS_TYPE": 0, "CLASSIFICATION_TYPE": "U", "NORAD_CAT_ID": 41599, "ELEMENT_SET_NO": 999, "REV_AT_EPOCH": 52724, "BSTAR": 0.00018562, "MEAN_MOTION_DOT": 3.845e-05, "MEAN_MOTION_DDOT": 0}, "tle": {"line1": "1 41599U 16040A   25358.85014110  .00003845  00000+0  18562-3 0  9996", "line2": "2 41599  97.4743  55.9746 0010728  24.6619 335.5127 15.19220100527243"}}, "geometry": {"type": "Point", "coordinates": [114.30553436941157, -81.20174993128619]}}, {"type": "Feature", "properties": {"norad_id": 41601, "name": "SKYSAT-C1", "group": "resource", "lat": -31.739971173425104, "lon": -148.8701026532888, "alt_km": 473.877594011321, "timestamp": "2025-12-25T03:55:55.963652+00:00", "meta": {"OBJECT_NAME": "SKYSAT-C1", "OBJECT_ID": "2016-040C", "EPOCH": "2025-12-24T14:28:34.441824", "MEAN_MOTION": 15.32797932, "ECCENTRICITY": 9.95e-05, "INCLINATION": 96.9804, "RA_OF_ASC_NODE": 34.9474, "ARG_OF_PERICENTER": 327.4396, "MEAN_ANOMALY": 32.6785, "EPHEMERIS_TYPE": 0, "CLASSIFICATION_TYPE": "U", "NORAD_CAT_ID": 41601, "ELEMENT_SET_NO": 999, "REV_AT_EPOCH": 53109, "BSTAR": 0.00030447, "MEAN_MOTION_DOT": 9.574e-05, "MEAN_MOTION_DDOT": 0}, "tle": {"line1": "1 41601U 16040C   25358.60317641  .00009574  00000+0  30447-3 0  9999", "line2": "2 41601  96.9804  34.9474 0000995 327.4396  32.6785 15.32797932531095"}}, "geometry": {"type": "Point", "coordinates": [-148.8701026532888, -31.739971173425104]}}, {"type": "Feature", "properties": {"norad_id": 41603, "name": "LAPAN-A3", "group": "resource", "lat": -52.68481012741207, "lon": 5.738900670184079, "alt_km": 472.50260040534977, "timestamp": "2025-12-25T03:55:55.963662+00:00", "meta": {"OBJECT_NAME": "LAPAN-A3", "OBJECT_ID": "2016-040E", "EPOCH": "2025-12-24T20:19:27.936768", "MEAN_MOTION": 15.31648597, "ECCENTRICITY": 0.000868, "INCLINATION": 97.1433, "RA_OF_ASC_NODE": 355.963, "ARG_OF_PERICENTER": 283.5677, "MEAN_ANOMALY": 76.4598, "EPHEMERIS_TYPE": 0, "CLASSIFICATION_TYPE": "U", "NORAD_CAT_ID": 41603, "ELEMENT_SET_NO": 999, "REV_AT_EPOCH": 52811, "BSTAR": 0.00015151, "MEAN_MOTION_DOT": 4.56e-05, "MEAN_MOTION_DDOT": 0}, "tle": {"line1": "1 41603U 16040E   25358.84685112  .00004560  00000+0  15151-3 0  9993", "line2": "2 41603  97.1433 355.9630 0008680 283.5677  76.4598 15.31648597528119"}}, "geometry": {"type": "Point", "coordinates": [5.738900670184079, -52.68481012741207]}}, {"type": "Feature", "properties": {"norad_id": 41604, "name": "BIROS", "group": "resource", "lat": -47.08413178836727, "lon": 38.80535768973027, "alt_km": 298.4957670839085, "timestamp": "2025-12-25T03:55:55.963673+00:00", "meta": {"OBJECT_NAME": "BIROS", "OBJECT_ID": "2016-040F", "EPOCH": "2025-12-24T13:04:12.806688", "MEAN_MOTION": 15.94433858, "ECCENTRICITY": 0.0003807, "INCLINATION": 97.0656, "RA_OF_ASC_NODE": 30.4902, "ARG_OF_PERICENTER": 125.9749, "MEAN_ANOMALY": 234.1881, "EPHEMERIS_TYPE": 0, "CLASSIFICATION_TYPE": "U", "NORAD_CAT_ID": 41604, "ELEMENT_SET_NO": 999, "REV_AT_EPOCH": 53060, "BSTAR": 0.0006731, "MEAN_MOTION_DOT": 0.00251039, "MEAN_MOTION_DDOT": 2.6148e-05}, "tle": {"line1": "1 41604U 16040F   25358.54459267  .00251039  26148-4  67310-3 0  9996", "line2": "2 41604  97.0656  30.4902 0003807 125.9749 234.1881 15.94433858530604"}}, "geometry": {"type": "Point", "coordinates": [38.80535768973027, -47.08413178836727]}}, {"type": "Feature", "properties": {"norad_id": 41727, "name": "GAOFEN-3", "group": "resource", "lat": 52.26983676022421, "lon": -6.454399340923439, "alt_km": 745.5102254568155, "timestamp": "2025-12-25T03:55:55.963683+00:00", "meta": {"OBJECT_NAME": "GAOFEN-3", "OBJECT_ID": "2016-049A", "EPOCH": "2025-12-24T21:01:36.120864", "MEAN_MOTION": 14.42215773, "ECCENTRICITY": 0.0001103, "INCLINATION": 98.4035, "RA_OF_ASC_NODE": 4.2767, "ARG_OF_PERICENTER": 56.8061, "MEAN_ANOMALY": 303.3234, "EPHEMERIS_TYPE": 0, "CLASSIFICATION_TYPE": "U", "NORAD_CAT_ID": 41727, "ELEMENT_SET_NO": 999, "REV_AT_EPOCH": 49352, "BSTAR": -2.4031e-05, "MEAN_MOTION_DOT": -1.23e-06, "MEAN_MOTION_DDOT": 0}, "tle": {"line1": "1 41727U 16049A   25358.87611251 -.00000123  00000+0 -24031-4 0  9996", "line2": "2 41727  98.4035   4.2767 0001103  56.8061 303.3234 14.42215773493526"}}, "geometry": {"type": "Point", "coordinates": [-6.454399340923439, 52.26983676022421]}}, {"type": "Feature", "properties": {"norad_id": 41771, "name": "SKYSAT-C4", "group": "resource", "lat": -41.051679598337735, "lon": -162.337547522556, "alt_km": 445.36047561380565, "timestamp": "2025-12-25T03:55:55.963694+00:00", "meta": {"OBJECT_NAME": "SKYSAT-C4", "OBJECT_ID": "2016-058B", "EPOCH": "2025-12-24T19:11:29.832576", "MEAN_MOTION": 15.42586627, "ECCENTRICITY": 0.0002533, "INCLINATION": 96.9361, "RA_OF_ASC_NODE": 23.4017, "ARG_OF_PERICENTER": 124.0416, "MEAN_ANOMALY": 236.1074, "EPHEMERIS_TYPE": 0, "CLASSIFICATION_TYPE": "U", "NORAD_CAT_ID": 41771, "ELEMENT_SET_NO": 999, "REV_AT_EPOCH": 51853, "BSTAR": 0.0003576, "MEAN_MOTION_DOT": 0.00015476, "MEAN_MOTION_DDOT": 0}, "tle": {"line1": "1 41771U 16058B   25358.79965084  .00015476  00000+0  35760-3 0  9997", "line2": "2 41771  96.9361  23.4017 0002533 124.0416 236.1074 15.42586627518535"}}, "geometry": {"type": "Point", "coordinates": [-162.337547522556, -41.051679598337735]}}, {"type": "Feature", "properties": {"norad_id": 41772, "name": "SKYSAT-C5", "group": "resource", "lat": 55.715246420385604, "lon": -127.10956723866231, "alt_km": 459.1841440195931, "timestamp": "2025-12-25T03:55:55.963704+00:00", "meta": {"OBJECT_NAME": "SKYSAT-C5", "OBJECT_ID": "2016-058C", "EPOCH": "2025-12-24T16:26:12.494112", "MEAN_MOTION": 15.34086313, "ECCENTRICITY": 0.0003944, "INCLINATION": 97.0739, "RA_OF_ASC_NODE": 41.9366, "ARG_OF_PERICENTER": 233.2582, "MEAN_ANOMALY": 126.83, "EPHEMERIS_TYPE": 0, "CLASSIFICATION_TYPE": "U", "NORAD_CAT_ID": 41772, "ELEMENT_SET_NO": 999, "REV_AT_EPOCH": 51699, "BSTAR": 0.00029732, "MEAN_MOTION_DOT": 9.736e-05, "MEAN_MOTION_DDOT": 0}, "tle": {"line1": "1 41772U 16058C   25358.68486683  .00009736  00000+0  29732-3 0  9993", "line2": "2 41772  97.0739  41.9366 0003944 233.2582 126.8300 15.34086313516996"}}, "geometry": {"type": "Point", "coordinates": [-127.10956723866231, 55.715246420385604]}}, {"type": "Feature", "properties": {"norad_id": 41773, "name": "SKYSAT-C2", "group": "resource", "lat": -76.04537373626869, "lon": 52.96470839668123, "alt_km": 460.2180048663713, "timestamp": "2025-12-25T03:55:55.963715+00:00", "meta": {"OBJECT_NAME": "SKYSAT-C2", "OBJECT_ID": "2016-058D", "EPOCH": "2025-12-24T18:53:55.761216", "MEAN_MOTION": 15.37535283, "ECCENTRICITY": 0.0002811, "INCLINATION": 97.035, "RA_OF_ASC_NODE": 22.804, "ARG_OF_PERICENTER": 358.0157, "MEAN_ANOMALY": 2.1077, "EPHEMERIS_TYPE": 0, "CLASSIFICATION_TYPE": "U", "NORAD_CAT_ID": 41773, "ELEMENT_SET_NO": 999, "REV_AT_EPOCH": 51821, "BSTAR": 0.00031458, "MEAN_MOTION_DOT": 0.00011512, "MEAN_MOTION_DDOT": 0}, "tle": {"line1": "1 41773U 16058D   25358.78745094  .00011512  00000+0  31458-3 0  9992", "line2": "2 41773  97.0350  22.8040 0002811 358.0157   2.1077 15.37535283518211"}}, "geometry": {"type": "Point", "coordinates": [52.96470839668123, -76.04537373626869]}}, {"type": "Feature", "properties": {"norad_id": 41774, "name": "SKYSAT-C3", "group": "resource", "lat": 71.09905161775511, "lon": 11.531354577272024, "alt_km": 423.8105313247024, "timestamp": "2025-12-25T03:55:55.963725+00:00", "meta": {"OBJECT_NAME": "SKYSAT-C3", "OBJECT_ID": "2016-058E", "EPOCH": "2025-12-24T19:50:49.662816", "MEAN_MOTION": 15.44820533, "ECCENTRICITY": 0.0002126, "INCLINATION": 96.928, "RA_OF_ASC_NODE": 32.0116, "ARG_OF_PERICENTER": 105.883, "MEAN_ANOMALY": 254.2654, "EPHEMERIS_TYPE": 0, "CLASSIFICATION_TYPE": "U", "NORAD_CAT_ID": 41774, "ELEMENT_SET_NO": 999, "REV_AT_EPOCH": 51912, "BSTAR": 0.0004204, "MEAN_MOTION_DOT": 0.00019642, "MEAN_MOTION_DDOT": 0}, "tle": {"line1": "1 41774U 16058E   25358.82696369  .00019642  00000+0  42040-3 0  9999", "line2": "2 41774  96.9280  32.0116 0002126 105.8830 254.2654 15.44820533519129"}}, "geometry": {"type": "Point", "coordinates": [11.531354577272024, 71.09905161775511]}}]}